ORBCOMM FM33            
1 25983U 99065D   24334.92058023  .00003056  00000+0  10268-2 0  9993
2 25983  45.0275 225.6757 0008214 133.8938 226.2590 14.38974233307354
ORBCOMM FM36            
1 25984U 99065E   24334.69227372  .00004905  00000+0  16837-2 0  9995
2 25984  45.0399 315.6148 0004365 352.1322   7.9457 14.37067621305719
ORBCOMM FM35            
1 25985U 99065F   24334.95667229  .00003419  00000+0  12078-2 0  9996
2 25985  45.0397 317.9335 0001472 114.0075 246.0927 14.36248567306131
ORBCOMM FM34            
1 25986U 99065G   24334.44112538  .00003756  00000+0  13215-2 0  9997
2 25986  45.0395 320.9060 0003172  28.6390 331.4632 14.36276878306215
ORBCOMM FM38            
1 33060U 08031A   24334.92725961  .00005546  00000+0  75825-3 0  9990
2 33060  48.4384 183.7688 0005963 255.5719 104.4535 14.79662212885220
ORBCOMM FM41            
1 33061U 08031B   24334.90165318  .00005363  00000+0  74032-3 0  9999
2 33061  48.4419 191.0259 0005189 241.5222 242.6690 14.79309257884717
ORBCOMM FM29            
1 33062U 08031C   24334.89306641  .00005812  00000+0  79934-3 0  9999
2 33062  48.4374 199.0621 0006856 241.8621 234.1572 14.79336037884628
ORBCOMM FM39            
1 33063U 08031D   24334.92177883  .00005260  00000+0  74744-3 0  9999
2 33063  48.4393 221.1494 0007631 218.5370 141.5000 14.78092471884301
